[{"OBJECT_NAME":"ZACUBE-1 (TSHEPISOSAT)","OBJECT_ID":"2013-066B","EPOCH":"2026-03-09T22:19:27.469056","MEAN_MOTION":15.00329659,"ECCENTRICITY":0.00425262,"INCLINATION":97.8171,"RA_OF_ASC_NODE":30.7553,"ARG_OF_PERICENTER":219.1599,"MEAN_ANOMALY":140.6545,"EPHEMERIS_TYPE":0,"CLASSIFICATION_TYPE":"U","NORAD_CAT_ID":39417,"ELEMENT_SET_NO":999,"REV_AT_EPOCH":66584,"BSTAR":0.00042975473,"MEAN_MOTION_DOT":5.431e-5,"MEAN_MOTION_DDOT":0},{"OBJECT_NAME":"STARLINK-4027","OBJECT_ID":"2022-052D","EPOCH":"2026-03-09T20:46:25.021632","MEAN_MOTION":15.08836121,"ECCENTRICITY":0.00012999,"INCLINATION":53.2159,"RA_OF_ASC_NODE":278.3341,"ARG_OF_PERICENTER":91.3033,"MEAN_ANOMALY":268.8108,"EPHEMERIS_TYPE":0,"CLASSIFICATION_TYPE":"U","NORAD_CAT_ID":52601,"ELEMENT_SET_NO":999,"REV_AT_EPOCH":21168,"BSTAR":-7.296261e-6,"MEAN_MOTION_DOT":-4.04e-6,"MEAN_MOTION_DDOT":0}]
